[{"OBJECT_NAME":"JUGNU","OBJECT_ID":"2011-058B","EPOCH":"2026-03-09T11:56:36.486528","MEAN_MOTION":14.1374078,"ECCENTRICITY":0.00187632,"INCLINATION":19.9594,"RA_OF_ASC_NODE":194.0637,"ARG_OF_PERICENTER":55.3849,"MEAN_ANOMALY":14.6148,"EPHEMERIS_TYPE":0,"CLASSIFICATION_TYPE":"U","NORAD_CAT_ID":37839,"ELEMENT_SET_NO":999,"REV_AT_EPOCH":74490,"BSTAR":0.00014293025,"MEAN_MOTION_DOT":5.41e-6,"MEAN_MOTION_DDOT":0},{"OBJECT_NAME":"CZ-6A DEB","OBJECT_ID":"2022-151FH","EPOCH":"2026-03-09T19:27:55.758528","MEAN_MOTION":13.64577478,"ECCENTRICITY":0.02604731,"INCLINATION":99.2377,"RA_OF_ASC_NODE":27.6616,"ARG_OF_PERICENTER":161.3838,"MEAN_ANOMALY":199.7054,"EPHEMERIS_TYPE":0,"CLASSIFICATION_TYPE":"U","NORAD_CAT_ID":54433,"ELEMENT_SET_NO":999,"REV_AT_EPOCH":16524,"BSTAR":0.00017988886,"MEAN_MOTION_DOT":1.42e-6,"MEAN_MOTION_DDOT":0}]
